[{"OBJECT_NAME":"ONEWEB-0546","OBJECT_ID":"2023-043C","EPOCH":"2026-03-09T22:09:56.414304","MEAN_MOTION":13.1659343,"ECCENTRICITY":0.00017344,"INCLINATION":87.9007,"RA_OF_ASC_NODE":248.515,"ARG_OF_PERICENTER":72.4024,"MEAN_ANOMALY":287.7297,"EPHEMERIS_TYPE":0,"CLASSIFICATION_TYPE":"U","NORAD_CAT_ID":56048,"ELEMENT_SET_NO":999,"REV_AT_EPOCH":14590,"BSTAR":-1.8967698e-5,"MEAN_MOTION_DOT":6.0e-8,"MEAN_MOTION_DDOT":0},{"OBJECT_NAME":"COSMOS 480","OBJECT_ID":"1972-019A","EPOCH":"2026-03-09T20:57:12.098016","MEAN_MOTION":13.19934651,"ECCENTRICITY":0.00174145,"INCLINATION":82.9802,"RA_OF_ASC_NODE":0.7732,"ARG_OF_PERICENTER":291.1619,"MEAN_ANOMALY":130.3273,"EPHEMERIS_TYPE":0,"CLASSIFICATION_TYPE":"U","NORAD_CAT_ID":5905,"ELEMENT_SET_NO":999,"REV_AT_EPOCH":59900,"BSTAR":5.9158614e-5,"MEAN_MOTION_DOT":3.7e-7,"MEAN_MOTION_DDOT":0}]
